{
  "type": "FeatureCollection",
  "features": [
    {
      "type": "Feature",
      "properties": {},
      "geometry": {
        "type": "Polygon",
        "coordinates": [
          [
            [
              13.3003155,
              54.6999527
            ],
            [
              13.4615651,
              54.6839669
            ],
            [
              13.4315737,
              54.6203457
            ],
            [
              13.5235474,
              54.594357
            ],
            [
              13.647512,
              54.5966737
            ],
            [
              13.7344702,
              54.5509509
            ],
            [
              13.6012537,
              54.4432676
            ],
            [
              13.6912649,
              54.4013724
            ],
            [
              13.7920774,
              54.3825056
            ],
            [
              13.7214909,
              54.2418497
            ],
            [
              13.5475406,
              54.2640432
            ],
            [
              13.3995828,
              54.2102909
            ],
            [
              13.2316308,
              54.1974267
            ],
            [
              13.0637029,
              54.2088894
            ],
            [
              12.845741,
              54.2878069
            ],
            [
              12.8417422,
              54.3783257
            ],
            [
              12.8517393,
              54.4648235
            ],
            [
              13.0216907,
              54.4961875
            ],
            [
              13.0991948,
              54.6102967
            ],
            [
              13.3003155,
              54.6999527
            ]
          ]
        ]
      }
    }
  ]
}
